{
    "links": {
        "self": "http://www.neowsapp.com/rest/v1/neo/3763482?api_key=iIulBulltgU6a56xZRHN4H3l9WmuAYTsLGpBGhQ2"
    },
    "id": "3763482",
    "neo_reference_id": "3763482",
    "name": "(2016 VO3)",
    "designation": "2016 VO3",
    "nasa_jpl_url": "http://ssd.jpl.nasa.gov/sbdb.cgi?sstr=3763482",
    "absolute_magnitude_h": 26.1,
    "estimated_diameter": {
        "kilometers": {
            "estimated_diameter_min": 0.0160160338,
            "estimated_diameter_max": 0.0358129403
        },
        "meters": {
            "estimated_diameter_min": 16.0160337979,
            "estimated_diameter_max": 35.8129403019
        },
        "miles": {
            "estimated_diameter_min": 0.0099518989,
            "estimated_diameter_max": 0.0222531225
        },
        "feet": {
            "estimated_diameter_min": 52.5460443254,
            "estimated_diameter_max": 117.4965270602
        }
    },
    "is_potentially_hazardous_asteroid": false,
    "close_approach_data": [
        {
            "close_approach_date": "2016-11-06",
            "close_approach_date_full": "2016-Nov-06 14:03",
            "epoch_date_close_approach": 1478440980000,
            "relative_velocity": {
                "kilometers_per_second": "9.9961010443",
                "kilometers_per_hour": "35985.963759518",
                "miles_per_hour": "22360.2784260183"
            },
            "miss_distance": {
                "astronomical": "0.0329028507",
                "lunar": "12.7992089223",
                "kilometers": "4922196.381648009",
                "miles": "3058511.0065161642"
            },
            "orbiting_body": "Earth"
        }
    ],
    "orbital_data": {
        "orbit_id": "4",
        "orbit_determination_date": "2017-04-06 08:22:18",
        "first_observation_date": "2016-11-08",
        "last_observation_date": "2016-11-21",
        "data_arc_in_days": 13,
        "observations_used": 26,
        "orbit_uncertainty": "7",
        "minimum_orbit_intersection": ".0338006",
        "jupiter_tisserand_invariant": "4.142",
        "epoch_osculation": "2459000.5",
        "eccentricity": ".4089066820169358",
        "semi_major_axis": "1.658567416149569",
        "inclination": "12.78447224018903",
        "ascending_node_longitude": "229.4004400990739",
        "orbital_period": "780.1859418121725",
        "perihelion_distance": ".9803681171104466",
        "perihelion_argument": "145.6933861483243",
        "aphelion_distance": "2.336766715188692",
        "perihelion_time": "2459234.754998793045",
        "mean_anomaly": "251.9080759522339",
        "mean_motion": ".4614284630197413",
        "equinox": "J2000",
        "orbit_class": {
            "orbit_class_type": "APO",
            "orbit_class_description": "Near-Earth asteroid orbits which cross the Earth’s orbit similar to that of 1862 Apollo",
            "orbit_class_range": "a (semi-major axis) > 1.0 AU; q (perihelion) < 1.017 AU"
        }
    },
    "is_sentry_object": false
}